NORAD_CAT_ID,OBJECT_NAME,OBJECT_TYPE,EPOCH,MEAN_MOTION,ECCENTRICITY,INCLINATION,RA_OF_ASC_NODE,ARG_OF_PERICENTER,MEAN_ANOMALY,BSTAR,MEAN_MOTION_DOT,MEAN_MOTION_DDOT,TLE_LINE0,TLE_LINE1,TLE_LINE2,SEMIMAJOR_AXIS,PERIOD,APOGEE,PERIGEE,DECAYED
50812.0,STARLINK-3338,PAYLOAD,2024-07-12 11:14:06,15.08841669,0.0001071,53.2155,356.1694,102.6597,257.4515,0.00012881,1.763e-05,0.0,0 STARLINK-3338,1 50812U 22001K   24194.46812713  .00001763  00000-0  12881-3 0  9993,2 50812  53.2155 356.1694 0001071 102.6597 257.4515 15.08841669140420,6917.875,95.437,540.481,538.999,0.0
50812.0,STARLINK-3338,PAYLOAD,2024-07-12 14:24:52,15.08839525,0.0001151,53.2169,355.5746,104.6351,255.4769,7.8523e-05,9.62e-06,0.0,0 STARLINK-3338,1 50812U 22001K   24194.60060822  .00000962  00000-0  78523-4 0  9991,2 50812  53.2169 355.5746 0001151 104.6351 255.4769 15.08839525139194,6917.882,95.438,540.543,538.951,0.0
50812.0,STARLINK-3338,PAYLOAD,2024-07-12 17:35:38,15.08838518,0.0001127,53.2169,354.9818,89.3721,270.74,8.6396e-05,1.087e-05,0.0,0 STARLINK-3338,1 50812U 22001K   24194.73308991  .00001087  00000-0  86396-4 0  9993,2 50812  53.2169 354.9818 0001127  89.3721 270.7400 15.08838518139216,6917.885,95.438,540.53,538.97,0.0
50812.0,STARLINK-3338,PAYLOAD,2024-07-13 11:04:53,15.08836983,0.0001813,53.2188,351.7087,75.6341,284.4852,5.2993e-05,5.55e-06,0.0,0 STARLINK-3338,1 50812U 22001K   24195.46173172  .00000555  00000-0  52993-4 0  9990,2 50812  53.2188 351.7087 0001813  75.6341 284.4852 15.08836983140576,6917.89,95.438,541.009,538.5,0.0
50812.0,STARLINK-3338,PAYLOAD,2024-07-13 14:15:39,15.08833279,0.0001192,53.2179,351.1166,89.6837,270.4292,-6.4321e-05,-1.311e-05,0.0,0 STARLINK-3338,1 50812U 22001K   24195.59421226 -.00001311  00000-0 -64321-4 0  9991,2 50812  53.2179 351.1166 0001192  89.6837 270.4292 15.08833279139344,6917.901,95.438,540.591,538.941,0.0
50812.0,STARLINK-3338,PAYLOAD,2024-07-13 17:26:26,15.08840531,0.0001385,53.2189,350.5268,111.6177,248.4963,4.3975e-05,4.12e-06,0.0,0 STARLINK-3338,1 50812U 22001K   24195.72669066  .00000412  00000-0  43975-4 0  9993,2 50812  53.2189 350.5268 0001385 111.6177 248.4963 15.08840531139369,6917.879,95.438,540.702,538.786,0.0
50812.0,STARLINK-3338,PAYLOAD,2024-07-14 02:58:44,15.08853217,0.0001421,53.2199,348.7422,111.4485,248.6659,0.00027785,4.138e-05,0.0,0 STARLINK-3338,1 50812U 22001K   24196.12412421  .00004138  00000-0  27785-3 0  9998,2 50812  53.2199 348.7422 0001421 111.4485 248.6659 15.08853217140677,6917.84,95.437,540.688,538.722,0.0
50812.0,STARLINK-3338,PAYLOAD,2024-07-14 09:20:17,15.08842771,0.0001743,53.2183,347.5496,83.2412,276.8778,0.00015582,2.193e-05,0.0,0 STARLINK-3338,1 50812U 22001K   24196.38908941  .00002193  00000-0  15582-3 0  9994,2 50812  53.2183 347.5496 0001743  83.2412 276.8778 15.08842771140714,6917.872,95.437,540.943,538.531,0.0
50812.0,STARLINK-3338,PAYLOAD,2024-07-14 14:06:26,15.08837609,0.0001219,53.2186,346.6585,92.7882,267.3249,8.0869e-05,9.99e-06,0.0,0 STARLINK-3338,1 50812U 22001K   24196.58781067  .00000999  00000-0  80869-4 0  9997,2 50812  53.2186 346.6585 0001219  92.7882 267.3249 15.08837609139495,6917.888,95.438,540.596,538.909,0.0
50812.0,STARLINK-3338,PAYLOAD,2024-07-14 20:27:59,15.08855243,0.0001208,53.2186,345.4679,90.9304,269.1827,0.00067858,0.00010533,0.0,0 STARLINK-3338,1 50812U 22001K   24196.85276633  .00010533  00000-0  67858-3 0  9992,2 50812  53.2186 345.4679 0001208  90.9304 269.1827 15.08855243139534,6917.834,95.437,540.534,538.863,0.0
50812.0,STARLINK-3338,PAYLOAD,2024-07-15 02:49:31,15.0887091,0.0001186,53.2191,344.2785,80.8755,279.2371,0.0015234,0.00024061,0.0,0 STARLINK-3338,1 50812U 22001K   24197.11772284  .00024061  00000-0  15234-2 0  9996,2 50812  53.2191 344.2785 0001186  80.8755 279.2371 15.08870910140826,6917.786,95.436,540.471,538.83,0.0
50812.0,STARLINK-3338,PAYLOAD,2024-07-15 09:11:04,15.08870828,0.0004405,53.2185,343.0908,80.9294,279.2196,0.002004,0.00031781,0.0,0 STARLINK-3338,1 50812U 22001K   24197.38269309  .00031781  00000-0  20040-2 0  9992,2 50812  53.2185 343.0908 0004405  80.9294 279.2196 15.08870828140866,6917.786,95.436,542.698,536.604,0.0
50812.0,STARLINK-3338,PAYLOAD,2024-07-15 13:57:13,15.08837533,0.0001345,53.2176,342.1971,85.2913,274.8232,0.0010078,0.00015786,0.0,0 STARLINK-3338,1 50812U 22001K   24197.58141136  .00015786  00000-0  10078-2 0  9998,2 50812  53.2176 342.1971 0001345  85.2913 274.8232 15.08837533139644,6917.888,95.438,540.683,538.822,0.0
50812.0,STARLINK-3338,PAYLOAD,2024-07-15 17:08:00,15.08834122,0.0001288,53.2174,341.6023,83.6996,276.4143,0.0018978,0.0003004,0.0,0 STARLINK-3338,1 50812U 22001K   24197.71389239  .00030040  00000-0  18978-2 0  9998,2 50812  53.2174 341.6023 0001288  83.6996 276.4143 15.08834122140915,6917.898,95.438,540.654,538.872,0.0
50812.0,STARLINK-3338,PAYLOAD,2024-07-16 02:40:19,15.08849197,0.0001342,53.2174,339.8179,86.2584,273.8562,0.0015506,0.00024482,0.0,0 STARLINK-3338,1 50812U 22001K   24198.11133221  .00024482  00000-0  15506-2 0  9998,2 50812  53.2174 339.8179 0001342  86.2584 273.8562 15.08849197140979,6917.852,95.437,540.646,538.789,0.0
50812.0,STARLINK-3338,PAYLOAD,2024-07-16 13:48:01,15.08848033,0.0001211,53.2168,337.7361,90.5086,269.6044,0.0018203,0.00028807,0.0,0 STARLINK-3338,1 50812U 22001K   24198.57501459  .00028807  00000-0  18203-2 0  9992,2 50812  53.2168 337.7361 0001211  90.5086 269.6044 15.08848033139796,6917.856,95.437,540.559,538.883,0.0
50812.0,STARLINK-3338,PAYLOAD,2024-07-16 16:58:47,15.0885533,0.0001109,53.2165,337.1408,92.6875,267.4244,0.0025188,0.00040043,0.0,0 STARLINK-3338,1 50812U 22001K   24198.70749355  .00040043  00000-0  25188-2 0  9992,2 50812  53.2165 337.1408 0001109  92.6875 267.4244 15.08855330141063,6917.834,95.437,540.466,538.931,0.0
50812.0,STARLINK-3338,PAYLOAD,2024-07-17 08:52:38,15.08860089,0.0001291,53.216,334.1709,87.7923,272.3217,0.0015951,0.00025203,0.0,0 STARLINK-3338,1 50812U 22001K   24199.36989461  .00025203  00000-0  15951-2 0  9997,2 50812  53.2160 334.1709 0001291  87.7923 272.3217 15.08860089141163,6917.819,95.436,540.577,538.791,0.0
50812.0,STARLINK-3338,PAYLOAD,2024-07-17 15:14:11,15.08837937,0.000102,53.217,332.9787,108.9958,251.1145,0.001424,0.00022446,0.0,0 STARLINK-3338,1 50812U 22001K   24199.63485550  .00022446  00000-0  14240-2 0  9993,2 50812  53.2170 332.9787 0001020 108.9958 251.1145 15.08837937139955,6917.887,95.438,540.457,539.046,0.0
50812.0,STARLINK-3338,PAYLOAD,2024-07-18 08:43:26,15.08851142,0.0001439,53.2178,329.7079,110.0418,250.073,0.0011752,0.0001847,0.0,0 STARLINK-3338,1 50812U 22001K   24200.36349769  .00018470  00000-0  11752-2 0  9994,2 50812  53.2178 329.7079 0001439 110.0418 250.0730 15.08851142141315,6917.846,95.437,540.707,538.716,0.0
50812.0,STARLINK-3338,PAYLOAD,2024-07-18 15:04:58,15.08839846,0.0001049,53.2168,328.5188,87.6495,272.4618,0.00034818,5.258e-05,0.0,0 STARLINK-3338,1 50812U 22001K   24200.62845902  .00005258  00000-0  34818-3 0  9992,2 50812  53.2168 328.5188 0001049  87.6495 272.4618 15.08839846140109,6917.881,95.438,540.472,539.02,0.0
50812.0,STARLINK-3338,PAYLOAD,2024-07-19 14:55:45,15.08840502,0.000109,53.2171,324.0575,100.8014,259.3101,0.00012787,1.748e-05,0.0,0 STARLINK-3338,1 50812U 22001K   24201.62205828  .00001748  00000-0  12787-3 0  9991,2 50812  53.2171 324.0575 0001090 100.8014 259.3101 15.08840502140253,6917.879,95.438,540.498,538.99,0.0
50812.0,STARLINK-3338,PAYLOAD,2024-07-20 14:46:33,15.08840441,0.0001135,53.218,319.6023,96.2819,263.8302,0.00014091,1.955e-05,0.0,0 STARLINK-3338,1 50812U 22001K   24202.61566035  .00001955  00000-0  14091-3 0  9991,2 50812  53.2180 319.6023 0001135  96.2819 263.8302 15.08840441140404,6917.879,95.438,540.529,538.959,0.0
50812.0,STARLINK-3338,PAYLOAD,2024-07-21 00:18:50,15.08859519,0.0001205,53.2189,317.8167,91.1644,268.9486,0.00028036,4.179e-05,0.0,0 STARLINK-3338,1 50812U 22001K   24203.01308865  .00004179  00000-0  28036-3 0  9996,2 50812  53.2189 317.8167 0001205  91.1644 268.9486 15.08859519141710,6917.821,95.436,540.519,538.852,0.0
50812.0,STARLINK-3338,PAYLOAD,2024-07-21 13:01:57,15.08828121,0.0001597,53.2196,315.4382,102.5018,257.6153,-6.9883e-05,-1.4e-05,0.0,0 STARLINK-3338,1 50812U 22001K   24203.54302533 -.00001400  00000-0 -69883-4 0  9992,2 50812  53.2196 315.4382 0001597 102.5018 257.6153 15.08828121141796,6917.917,95.438,540.886,538.677,0.0
50812.0,STARLINK-3338,PAYLOAD,2024-07-21 14:37:20,15.08829765,0.0001574,53.2193,315.1408,99.7211,260.3959,-5.1496e-05,-1.107e-05,0.0,0 STARLINK-3338,1 50812U 22001K   24203.60926551 -.00001107  00000-0 -51496-4 0  9996,2 50812  53.2193 315.1408 0001574  99.7211 260.3959 15.08829765140559,6917.912,95.438,540.866,538.688,0.0
50812.0,STARLINK-3338,PAYLOAD,2024-07-22 17:38:53,15.0884742,0.0001625,53.2192,310.0861,102.2181,257.8993,0.00031203,4.682e-05,0.0,0 STARLINK-3338,1 50812U 22001K   24204.73534340  .00004682  00000-0  31203-3 0  9994,2 50812  53.2192 310.0861 0001625 102.2181 257.8993 15.08847420141972,6917.858,95.437,540.847,538.599,0.0
50812.0,STARLINK-3338,PAYLOAD,2024-07-23 15:54:17,15.08847466,0.0001415,53.2176,305.9167,105.8401,254.2747,0.00030249,4.53e-05,0.0,0 STARLINK-3338,1 50812U 22001K   24205.66270421  .00004530  00000-0  30249-3 0  9995,2 50812  53.2176 305.9167 0001415 105.8401 254.2747 15.08847466142112,6917.858,95.437,540.701,538.744,0.0
50812.0,STARLINK-3338,PAYLOAD,2024-07-24 06:12:45,15.08840423,0.0001505,53.2173,303.2452,106.0742,254.0416,7.4987e-05,9.06e-06,0.0,0 STARLINK-3338,1 50812U 22001K   24206.25886574  .00000906  00000-0  74987-4 0  9994,2 50812  53.2173 303.2452 0001505 106.0742 254.0416 15.08840423142205,6917.879,95.438,540.785,538.703,0.0
50812.0,STARLINK-3338,PAYLOAD,2024-07-26 04:18:56,15.08843881,0.0001479,53.2171,294.6205,101.8265,258.2893,0.00014444,2.012e-05,0.0,0 STARLINK-3338,1 50812U 22001K   24208.17982491  .00002012  00000-0  14444-3 0  9993,2 50812  53.2171 294.6205 0001479 101.8265 258.2893 15.08843881142492,6917.869,95.437,540.757,538.71,0.0
